satname,norad_id,inclination_deg,eccentricity,mean_motion_rev_per_day,perigee_km,apogee_km,l1,l2
STARLINK-1540,46051,53.1574,0.0002709,15.30184243,473.4055315639307,477.1187032057305,1 46051U 20055AA  26102.84356532  .00000138  00000+0  16819-4 0  9995,2 46051  53.1574 315.2019 0002709  90.7176 269.4135 15.30184243314315
STARLINK-1541,46052,53.1597,6.79e-05,15.41206569,442.0840498774396,443.0102987883138,1 46052U 20055AB  26103.00002315  .00117542  00000+0  27554-2 0  9996,2 46052  53.1597 314.1913 0000679 101.5010 264.8358 15.41206569  6170
STARLINK-1543,46053,53.1604,0.0001398,15.30189969,474.2869175343958,476.2031231472829,1 46053U 20055AC  26102.83935481  .00002803  00000+0  10675-3 0  9996,2 46053  53.1604 315.2886 0001398  95.9933 264.1228 15.30189969314308
STARLINK-1548,46054,53.1612,0.0001156,15.30195221,474.43708954028807,476.02158783779305,1 46054U 20055AD  26102.84672736  .00000111  00000+0  15858-4 0  9998,2 46054  53.1612 315.2582 0001156  88.9916 271.1217 15.30195221314300
STARLINK-1554,46055,53.1601,0.000136,15.31680615,469.86632638109586,471.72923664166683,1 46055U 20055AE  26103.00002315  .00057025  00000+0  18365-2 0  9998,2 46055  53.1601 314.6496 0001360  76.5904  69.7297 15.31680615  6172
STARLINK-1564,46058,53.1599,0.000133,15.30200186,474.30301830553617,476.12600980827574,1 46058U 20055AH  26102.84258815  .00001498  00000+0  62679-4 0  9992,2 46058  53.1599 315.7316 0001330  93.6196 266.4956 15.30200186314297
STARLINK-1570,46059,53.1601,0.0001374,15.3165526,469.93231205967186,471.8144201082723,1 46059U 20055AJ  26103.00002315  .00075432  00000+0  24214-2 0  9994,2 46059  53.1601 314.5283 0001374  79.8050 272.3205 15.31655260  6238
STARLINK-1572,46060,53.1593,0.0001079,15.30188291,474.5105501450944,475.9895110662992,1 46060U 20055AK  26102.88892203  .00006409  00000+0  22841-3 0  9997,2 46060  53.1593 315.2658 0001079 105.0225 255.0895 15.30188291314275
STARLINK-1573,46061,53.1605,0.0001297,15.3019894,474.3293542161846,476.1071145639853,1 46061U 20055AL  26102.85619947  .00000290  00000+0  21917-4 0  9993,2 46061  53.1605 315.1640 0001297  76.5168 283.5977 15.30198940314303
STARLINK-1577,46063,53.1609,0.0001169,15.30202713,474.40581299234964,476.00812481227877,1 46063U 20055AN  26102.81721635  .00000362  00000+0  24343-4 0  9995,2 46063  53.1609 315.3170 0001169  97.4497 262.6636 15.30202713314296
STARLINK-1583,46064,53.1599,0.000123,15.30186397,474.41271852590035,476.0986531266144,1 46064U 20055AP  26102.85305626 -.00000921  00000+0 -18978-4 0  9998,2 46064  53.1599 315.1811 0001230  97.3367 262.7774 15.30186397314292
STARLINK-1536,46070,53.1045,0.0001076,15.20431947,503.79617423539275,505.2773256263772,1 46070U 20055AV  26103.00002315  .00079451  00000+0  35730-2 0  9997,2 46070  53.1045 301.8891 0001076  33.1673  66.4469 15.20431947  6056
STARLINK-1542,46073,53.0543,0.0001335,15.06400408,546.285773611774,548.1348413428705,1 46073U 20055AY  26102.84503703  .00000924  00000+0  80937-4 0  9998,2 46073  53.0543 303.2876 0001335  93.2289 266.8853 15.06400408314459
STARLINK-1549,46074,53.0508,0.0001245,15.25392284,488.7526986065386,490.4627670450127,1 46074U 20055AZ  26102.92002459  .00015739  00000+0  62729-3 0  9998,2 46074  53.0508 301.8015 0001245  92.7868 267.3271 15.25392284314472
STARLINK-1551,46075,53.1556,0.0001346,15.29281966,477.0346942884471,478.88035493447296,1 46075U 20055BA  26103.00002315  .00082248  00000+0  28376-2 0  9998,2 46075  53.1556 301.6052 0001346 110.0586 135.1872 15.29281966  5866
STARLINK-1552,46076,53.1549,0.0001016,15.29296595,477.21722693101674,478.61037645392116,1 46076U 20055BB  26103.00002315  .00083120  00000+0  28659-2 0  9993,2 46076  53.1549 301.5856 0001016  97.9443  19.4784 15.29296595  5993
STARLINK-1559,46077,53.0242,0.0001994,15.33270607,464.6973612301199,467.4268278290183,1 46077U 20055BC  26102.88954050  .00040449  00000+0  12453-2 0  9993,2 46077  53.0242 274.3124 0001994 177.3169 182.7843 15.33270607314827
STARLINK-1566,46079,53.1557,0.0001233,15.29331086,476.9653799540729,478.6560566614089,1 46079U 20055BE  26103.00002315  .00059987  00000+0  20760-2 0  9995,2 46079  53.1557 301.5587 0001233  81.8056 309.6491 15.29331086  6051
STARLINK-1568,46080,53.0586,0.000429,15.49324354,415.785533232679,421.6172205600569,1 46080U 20055BF  26102.64974920  .00030104  00000+0  54678-3 0  9992,2 46080  53.0586 230.5734 0004290 253.9949 106.0587 15.49324354315452
STARLINK-1578,46082,53.1108,0.0002732,15.22092171,497.6520039037332,501.4099616895337,1 46082U 20055BH  26103.00002315  .00080344  00000+0  34411-2 0  9998,2 46082  53.1108 301.8270 0002732  55.9985  95.5305 15.22092171  6100
STARLINK-1579,46083,53.1512,0.0002053,15.28940668,477.57002277900756,480.3855541111425,1 46083U 20055BJ  26103.00002315  .00089132  00000+0  31035-2 0  9992,2 46083  53.1512 301.6441 0002053  28.6787  35.9284 15.28940668  6160
STARLINK-1593,46119,53.0367,0.0005201,15.91006018,295.99345202622135,302.93949515945224,1 46119U 20057C   26103.00002315  .00469532  95307-4  14636-2 0  9997,2 46119  53.0367  97.7541 0005201  61.9165  38.4162 15.91006018  6210
STARLINK-1621,46127,53.0371,0.0004198,15.97294864,279.13174835428526,284.72353862896034,1 46127U 20057L   26103.00002315  .00640404  18748-3  14272-2 0  9994,2 46127  53.0371  70.0602 0004198  76.2985 106.1157 15.97294864  6399
STARLINK-1622,46128,53.0201,0.0001717,15.70736406,355.6347817150836,357.9475560482779,1 46128U 20057M   26102.17371947  .00074765  00000+0  59060-3 0  9996,2 46128  53.0201  59.1839 0001717  23.8793 336.2303 15.70736406312619
STARLINK-1623,46129,53.0445,0.000325,15.60354885,384.43262352592865,388.8297228384972,1 46129U 20057N   26102.67261925  .00099214  00000+0  11804-2 0  9995,2 46129  53.0445  91.3563 0003250   4.6433 355.4609 15.60354885312218
STARLINK-1624,46130,53.0377,0.0007846,15.80102449,324.8873337487157,335.4139787388931,1 46130U 20057P   26103.00002315  .00198577  00000+0  10203-2 0  9995,2 46130  53.0377  61.7946 0007846  94.4168 156.7291 15.80102449  6305
STARLINK-1596,46141,53.0394,0.0002088,15.50683083,413.31212642415267,416.14882788261275,1 46141U 20057AA  26102.91066025  .00068363  00000+0  11683-2 0  9996,2 46141  53.0394  67.1490 0002088  80.8433 279.2811 15.50683083312570
STARLINK-1597,46142,53.0454,0.0005242,15.64518341,371.0845615625376,378.1641565713835,1 46142U 20057AB  26102.79548573  .00096000  00000+0  97166-3 0  9996,2 46142  53.0454 130.7139 0005242 341.4685  18.6137 15.64518341311669
